record_number,federal_provider_number,provider_name,number_of_certified_beds,average_number_of_residents_per_day,provider_address,provider_city,provider_zip_code,lat,lon
45781,345000,AUTUMN CARE OF BISCOE,141,71.5,401 LAMBERT ROAD,BISCOE,27209,35.36561068,-79.78957942
45786,345001,HILLCREST CONVALESCENT CENTER,86,75.8,1417 W PETTIGREW STREET,DURHAM,27705,36.0043107,-78.919296
45791,345002,CYPRESS POINTE REHABILITATION CENTER,90,56.3,2006 SOUTH 16TH STREET,WILMINGTON,28401,34.21227102,-77.926083
45796,345003,SILAS CREEK REHABILITATION CENTER,90,64,3350 SILAS CREEK PARKWAY,WINSTON-SALEM,27103,36.07483549,-80.29903056
45801,345004,PERSON MEMORIAL HOSPITAL,56,48.4,615 RIDGE ROAD,ROXBORO,27573,36.40848405,-78.98524838
45806,345006,BLUMENTHAL NURSING & REHABILITATION CENTER,134,100.4,3724 WIRELESS DRIVE,GREENSBORO,27455,36.12005761,-79.82516417
45811,345008,"THE CITADEL AT MYERS PARK, LLC",133,58.2,300 PROVIDENCE ROAD,CHARLOTTE,28207,35.205663,-80.824276
45816,345009,THE OAKS AT WHITAKER GLEN-MAYVIEW,91,64.9,513 EAST WHITAKER MILL ROAD,RALEIGH,27608,35.80692545,-78.63347294
45821,345010,ACCORDIUS HEALTH AT ASHEVILLE,77,57.2,500 BEAVERDAM ROAD,ASHEVILLE,28804,35.642105,-82.528758
45826,345011,ACCORDIUS HEALTH AT LEXINGTON,106,70.7,279 BRIAN CENTER DRIVE,LEXINGTON,27292,35.79994638,-80.2887953
45831,345013,PEAK RESOURCES - CHARLOTTE,142,104.2,3223 CENTRAL AVENUE,CHARLOTTE,28205,35.2164146,-80.7883847
45836,345014,"ACCORDIUS HEALTH AT GREENSBORO, LLC",105,58.5,1201 CAROLINA STREET,GREENSBORO,27401,36.08896112,-79.79035046
45841,345015,CLAPP'S CONVALESCENT NURSING HOME INC,96,74.2,500 MOUNTAIN TOP DRIVE,ASHEBORO,27203,35.70939003,-79.78825029
45846,345024,CLAPPS NURSING CENTER INC,118,78.1,5229 APPOMATTOX ROAD,PLEASANT GARDEN,27313,35.95883772,-79.75742897
45851,345026,ROYAL PARK REHAB & HEALTH CTR OF MATTHEWS,169,116.7,2700 ROYAL COMMONS LANE,MATTHEWS,28105,35.115797,-80.693025
45856,345036,ELIZABETH CITY HEALTH AND REHABILITATION,146,116.1,1075 US HIGHWAY 17 SOUTH,ELIZABETH CITY,27909,36.294457,-76.223241
45861,345039,SUMMERSTONE HEALTH AND REHABILITATION CENTER,120,70.8,485 VETERANS WAY,KERNERSVILLE,27284,36.09402,-80.04776
45866,345044,ST JOSEPH OF THE PINES HEALTH CENTER,176,52.2,103 GOSSMAN DRIVE,PINEHURST,28374,35.218963,-79.375802
45871,345045,THE FOLEY CENTER AT CHESTNUT RIDGE,92,70.2,621 CHESTNUT RIDGE PARKWAY,BLOWING ROCK,28605,36.14729,-81.65808
45876,345048,MOUNTAIN RIDGE HEALTH AND REHAB,97,85.2,611 OLD US HIGHWAY 70 EAST,BLACK MOUNTAIN,28711,35.6108428,-82.3377915
45881,345049,RALEIGH REHABILITATION CENTER,157,78.6,616 WADE AVENUE,RALEIGH,27605,35.79677581,-78.64971577
45886,345050,JACOB'S CREEK NURSING AND REHABILITATION CENTER,170,109.7,1721 BALD HILL LOOP,MADISON,27025,36.362636,-79.905143
45891,345051,ANSON HEALTH AND REHABILITATION,95,73.7,405 SOUTH GREENE STREET,WADESBORO,28170,34.9627379,-80.07742078
45896,345053,PETTIGREW REHABILITATION CENTER,96,52.3,1515 W PETTIGREW STREET,DURHAM,27705,36.0052578,-78.9213922
45901,345054,WOODHAVEN NURS & ALZHEIMER'S C,115,83.8,1150 PINE RUN DRIVE,LUMBERTON,28358,34.65847333,-78.99118649
45906,345061,PRUITTHEALTH-DURHAM,125,87,3100 ERWIN ROAD,DURHAM,27705,36.0042841,-78.95063891
45911,345063,ACCORDIUS HEALTH AT WILSON,110,60.1,1804 FOREST HILLS ROAD W,WILSON,27893,35.72239,-77.95128
45916,345066,ALSTON BROOK,100,72.1,4748 OLD SALISBURY ROAD,LEXINGTON,27295,35.785924,-80.323593
45921,345070,DURHAM NURSING & REHABILITATION CENTER,126,85.3,411 S LASALLE STREET,DURHAM,27705,36.01341045,-78.9473003
45926,345072,CAROLINA RIVERS NURSING AND REHABILITATION CENTER,120,57.4,1839 ONSLOW DRIVE EXTENSION,JACKSONVILLE,28540,34.74993216,-77.40854027
45931,345077,SUNNYBROOK REHABILITATION CENTER,95,62.9,25 SUNNYBROOK ROAD,RALEIGH,27610,35.786474,-78.585815
45936,345078,HIGHLAND FARMS,60,38,200 TABERNACLE ROAD,BLACK MOUNTAIN,28711,35.6102324,-82.3464353
45941,345080,BRIAN CENTER HEALTH & REHAB HICKORY VIEWMONT,104,73.2,220 13TH AVENUE PLACE NW,HICKORY,28601,35.75062073,-81.34154851
45946,345081,ACCORDIUS HEALTH AT ROSE MANOR LLC,111,80.3,4230 NORTH ROXBORO STREET,DURHAM,27704,36.0502698,-78.9024999
45951,345083,ACCORDIUS HEALTH AT RUTHERFORD LLC,80,64.3,188 OSCAR JUSTICE ROAD,RUTHERFORDTON,28139,35.41096,-81.92518
45956,345088,TRINITY GLEN,117,84.8,849 WATERWORKS ROAD,WINSTON-SALEM,27101,36.111442,-80.202502
45961,345089,WALNUT COVE HEALTH AND REHABILITATION CENTER,90,72.4,511 WINDMILL STREET,WALNUT COVE,27052,36.29927792,-80.14331037
45966,345090,WESTCHESTER MANOR AT PROVIDENCE PLACE,129,84.8,1795 WESTCHESTER DRIVE,HIGH POINT,27262,35.94394757,-80.03385614
45971,345091,EDGEWOOD PLACE AT THE VILLAGE AT BROOKWOOD,105,20.9,1820 BROOKWOOD AVENUE,BURLINGTON,27215,36.093385,-79.462537
45976,345092,THE CITADEL AT WINSTON SALEM,230,154,1900 W 1ST STREET,WINSTON-SALEM,27104,36.09627337,-80.27245205
45981,345093,MARYFIELD NURSING HOME,115,97.5,1315 GREENSBORO ROAD,HIGH POINT,27260,35.99015929,-79.95915929
45986,345095,CHATHAM NURSING & REHABILITATION,99,62.7,700 JOHNSTON RIDGE ROAD,ELKIN,28621,36.268602,-80.835403
45991,345096,HUNTERSVILLE OAKS,168,64.6,12019 VERHOEFF DRIVE,HUNTERSVILLE,28078,35.39365043,-80.84152655
45996,345097,JESSE HELMS NURSING CENTER,70,44.2,1411 DOVE STREET,MONROE,28111,34.97636677,-80.52120256
46001,345102,MAGGIE VALLEY NURSING AND REHABILITATION,114,95.3,75 FISHER LOOP,MAGGIE VALLEY,28751,35.5167107,-83.09976901
46006,345103,CARRINGTON PLACE,166,114.5,600 FULLWOOD LANE,MATTHEWS,28105,35.115807,-80.732293
46011,345104,ZEBULON REHABILITATION CENTER,60,49.9,509 WEST GANNON AVENUE,ZEBULON,27597,35.82023909,-78.32685212
46016,345106,TRINITY RIDGE,120,97.6,2140 MEDICAL PARK DRIVE,HICKORY,28602,35.68883272,-81.35951819
46021,345109,TRINITY PLACE,76,67.3,24724 SOUTH BUSINESS 52,ALBEMARLE,28001,35.332124,-80.183523
46026,345110,AUTUMN CARE OF WAYNESVILLE,90,70.1,360 OLD BALSAM ROAD,WAYNESVILLE,28786,35.45966664,-83.0127855
46031,345111,PENICK VILLAGE,50,30.1,401 EAST RHODE ISLAND AVENUE,SOUTHERN PINES,28387,35.173708,-79.381993
46036,345113,WILLOW CREEK NURSING AND REHABILITATION CENTER,200,129.5,2401 WAYNE MEMORIAL DRIVE,GOLDSBORO,27534,35.39836996,-77.96116646
46041,345115,ACCORDIUS HEALTH AT SALISBURY,185,115.4,635 STATESVILLE BOULEVARD,SALISBURY,28144,35.68908578,-80.49225323
46046,345116,"CAROLINA PINES AT GREENSBORO, LLC",126,71.4,109 S HOLDEN RD,GREENSBORO,27407,36.0704148,-79.8480197
46051,345119,NORTHCHASE NURSING AND REHABILITATION CENTER,140,117.1,3015 ENTERPRISE DRIVE,WILMINGTON,28405,34.306462,-77.87584
46056,345123,CAROLINA VILLAGE INC,58,39.7,600 CAROLINA VILLAGE ROAD SUITE Z,HENDERSONVILLE,28792,35.345211,-82.447385
46061,345124,PRUITTHEALTH-ELKIN,100,78.5,560 JOHNSON RIDGE ROAD,ELKIN,28621,36.263614,-80.832584
46066,345126,MOUNT OLIVE CENTER,150,95.4,228 SMITH CHAPEL ROAD,MOUNT OLIVE,28365,35.19825,-78.076708
46071,345127,WHITE OAK MANOR - TRYON,70,48.3,70 OAK STREET,TRYON,28782,35.20977007,-82.23722032
46076,345128,ACCORDIUS HEALTH AT STATESVILLE,147,80.5,520 VALLEY STREET,STATESVILLE,28677,35.7975781,-80.8679833
46081,345129,DAVIE NURSING AND REHABILITATION CENTER,96,81.3,498 MADISON ROAD,MOCKSVILLE,27028,35.91682,-80.59215
46086,345130,ACCORDIUS HEALTH AT CONCORD,120,58.5,515 LAKE CONCORD ROAD NE,CONCORD,28025,35.44435818,-80.60030055
46091,345131,ACCORDIUS HEALTH AT CLEMMONS,94,78.5,3905 CLEMMONS ROAD,CLEMMONS,27012,36.018832,-80.3916275
46096,345132,GREENHAVEN HEALTH AND REHABILITATION CENTER,120,67,801 GREENHAVEN DRIVE,GREENSBORO,27406,36.02393866,-79.81370835
46101,345133,ACCORDIUS HEALTH AT WILKESBORO,120,74.5,1000 COLLEGE STREET,WILKESBORO,28697,36.141605,-81.165559
46106,345134,PELICAN HEALTH RANDOLPH LLC,100,62.4,4801 RANDOLPH ROAD,CHARLOTTE,28211,35.17068804,-80.7963067
46111,345137,THE LODGE AT ROCKY MOUNT HEALTH AND REHABILITATION,100,85.8,3322 VILLAGE ROAD,ROCKY MOUNT,27804,35.97722605,-77.87507865
46116,345138,LENOIR HEALTHCARE CENTER,120,76,322 NUWAY CIRCLE,LENOIR,28645,35.9429713,-81.5371495
46121,345140,BRIGHTMOOR NURSING CENTER,58,24.5,610 WEST FISHER STREET,SALISBURY,28145,35.67119016,-80.47633657
46126,345142,UNIVERSITY PLACE NURSING AND REHABILITATION CENTER,207,126.8,9200 GLENWATER DRIVE,CHARLOTTE,28262,35.31627415,-80.75018293
46131,345143,SILER CITY CENTER,150,125.6,900 W DOLPHIN STREET,SILER CITY,27344,35.71758285,-79.47470867
46136,345144,PINE RIDGE HEALTH AND REHABILITATION CENTER,140,90.8,706 PINEYWOOD ROAD,THOMASVILLE,27360,35.89249705,-80.10428165
46141,345145,THE CARROLTON OF WILLIAMSTON,154,84.7,119 GATLING STREET,WILLIAMSTON,27892,36.00188,-76.95477
46146,345146,BETHANY WOODS NURSING AND REHABILITATION CENTER,180,96.2,33426 OLD SALISBURY ROAD BOX 1250,ALBEMARLE,28002,35.390788,-80.221142
46151,345148,FRIENDS HOMES AT GUILFORD,40,38.1,925 NEW GARDEN ROAD,GREENSBORO,27410,36.092859,-79.890438
46156,345149,ACCORDIUS HEALTH AT WINSTON SALEM,66,41.7,4911 BRIAN CENTER LANE,WINSTON-SALEM,27106,36.159812,-80.29457567
46161,345150,KENANSVILLE HEALTH & REHABILITATION CENTER,92,50,209 BEASLEY STREET,KENANSVILLE,28349,34.96420432,-77.95775887
46166,345151,WHITE OAK MANOR - KINGS MOUNTAIN,154,103.1,716 SIPES STREET,KINGS MOUNTAIN,28086,35.24285202,-81.35638487
46171,345152,TRINITY VILLAGE,82,70.6,1265 21 STREET NE,HICKORY,28601,35.7445,-81.298978
46176,345153,TRINITY OAKS,115,87.5,820 KLUMAC ROAD,SALISBURY,28144,35.64562225,-80.48401588
46181,345155,ALPINE HEALTH AND REHABILITATION OF ASHEBORO,238,116.5,230 EAST PRESNELL STREET,ASHEBORO,27203,35.71449745,-79.808273
46186,345156,HARMONY HALL NURSING AND REHABILITATION CENTER,175,96.2,312 WARREN AVENUE,KINSTON,28502,35.27225392,-77.58438175
46191,345159,LINCOLNTON REHABILITATION CENTER,120,76.4,1410 EAST GASTON STREET,LINCOLNTON,28092,35.47296545,-81.2353443
46196,345160,DAVIS HEALTH CARE CENTER,104,92.3,1011 PORTERS NECK ROAD,WILMINGTON,28411,34.294494,-77.771428
46201,345161,ABERNETHY LAURELS,174,127.1,102 LEONARD AVENUE,NEWTON,28658,35.6424554,-81.18483487
46206,345162,ACCORDIUS HEALTH AT GASTONIA,118,62.5,416 N HIGHLAND STREET,GASTONIA,28052,35.26919803,-81.19395709
46211,345163,GLENBRIDGE HEALTH AND REHABILTATION CENTER,134,58.6,211 MILTON BROWN HEIRS ROAD,BOONE,28607,36.18735192,-81.63267832
46216,345164,CHOWAN RIVER NURSING AND REHABILITATION CENTER,130,72.2,1341 PARADISE ROAD,EDENTON,27932,36.078502,-76.599257
46221,345165,AUTUMN CARE OF MARION,110,80.9,1264 AIRPORT ROAD,MARION,28752,35.701914,-82.019411
46226,345166,STOKES COUNTY NURSING HOME,40,37.3,1570 NC 8 AND 89 HIGHWAY,DANBURY,27016,36.40782,-80.20184
46231,345167,YADKIN NURSING CARE CENTER,147,86.5,903 W MAIN STREET,YADKINVILLE,27055,36.1345338,-80.6609762
46236,345168,MACGREGOR DOWNS HEALTH AND REHABILITATION,152,107.2,2910 MACGREGOR DOWNS ROAD,GREENVILLE,27834,35.6115418,-77.4104308
46241,345169,BRIAN CENTER HEALTH & REHAB/GASTONIA,162,115.4,969 COX ROAD,GASTONIA,28054,35.2626058,-81.1336012
46246,345170,CRYSTAL BLUFFS REHABILITATION AND HEALTH CARE CENT,92,79.1,4010 BRIDGES STREET EXTENSION,MOREHEAD CITY,28557,34.73616,-76.7883
46251,345171,WHITE OAK MANOR - SHELBY,160,80.5,401 N MORGAN STREET,SHELBY,28150,35.296344,-81.541808
46256,345172,MERIDIAN CENTER,199,151,707 NORTH ELM STREET,HIGH POINT,27262,35.964267,-80.01318152
46261,345173,EMERALD HEALTH & REHAB CENTER,96,60.2,54 RED MULBERRY WAY,LILLINGTON,27546,35.425959,-78.811634
46266,345174,CAROLINA PINES AT ASHEVILLE,120,78.8,91 VICTORIA ROAD,ASHEVILLE,28801,35.576717,-82.551956
46271,345175,SMITHFIELD MANOR NURSING AND REHAB,138,103.3,902 BERKSHIRE ROAD,SMITHFIELD,27577,35.5179283,-78.3261249
46276,345177,THE GREENS AT PINEHURST REHAB & LIVING CENTER,120,84.2,205 RATTLESNAKE TRAIL,PINEHURST,28374,35.20583596,-79.46539267
46281,345179,ACCORDIUS HEALTH AT MOORESVILLE,131,49.6,752 E CENTER AVENUE,MOORESVILLE,28115,35.578684,-80.7981104
46286,345180,WESLEY PINES RETIREMENT COMM,62,48.7,1000 WESLEY PINES ROAD,LUMBERTON,28358,34.6567327,-78.9972871
46291,345181,UNIVERSAL HEALTH CARE / GREENVILLE,120,96.6,2578 WEST FIFTH STREET,GREENVILLE,27834,35.6178,-77.41084
46296,345182,PRUITTHEALTH-SEALEVEL,104,64.1,468 HIGHWAY 70 EAST,SEALEVEL,28577,35.387362,-78.455056
46301,345183,UNIVERSAL HEALTH CARE & REHAB,120,85.6,430 BROOKWOOD AVENUE NE,CONCORD,28025,35.43096423,-80.58036304
46306,345184,CITADEL ELIZABETH CITY LLC,108,56.4,901 SOUTH HALSTEAD BOULEVARD,ELIZABETH CITY,27909,36.286357,-76.240064
46311,345185,PREMIER LIVING AND REHAB CENTER,127,62.2,106 CAMERON STREET,LAKE WACCAMAW,28450,34.31931259,-78.5192222
46316,345186,FIVE OAKS MANOR,160,111.2,413 WINECOFF SCHOOL ROAD,CONCORD,28027,35.44664353,-80.62063224
46321,345187,GRACE HEIGHTS HEALTH & REHABILITATION,120,97.4,109 FOOTHILLS DRIVE,MORGANTON,28655,35.7267892,-81.65115133
46326,345190,MURPHY REHABILITATION & NURSING,134,89,230 NC HWY 141,MURPHY,28906,35.042993,-83.781043
46331,345191,SURRY COMMUNITY HEALTH AND REHAB CENTER,120,82.6,542 ALLRED MILL ROAD,MOUNT AIRY,27030,36.52322489,-80.61765012
46336,345192,LONGLEAF NEURO-MEDICAL TREATMENT CENTER,248,124.2,4761 WARD BOULEVARD,WILSON,27893,35.72532271,-77.89579739
46341,345193,MOUNTAIN VIEW MANOR NURSING CE,120,60.6,410 BUCKNER BRANCH ROAD,BRYSON CITY,28713,35.42519684,-83.48180593
46346,345194,GLENFLORA,52,32.7,5701 FAYETTEVILLE ROAD,LUMBERTON,28360,34.680656,-79.013643
46351,345195,EDGECOMBE HEALTH AND REHAB CENTER,159,95.2,1000 WESTERN BOULEVARD,TARBORO,27886,35.896842,-77.557436
46356,345196,MOUNTAIN VISTA HEALTH PARK,60,52.5,106 MOUNTAIN VISTA HEALTH PARK ROAD,DENTON,27239,35.624975,-80.119187
46361,345197,WILLOW RIDGE OF NC,136,89.9,237 TRYON ROAD,RUTHERFORDTON,28139,35.36382949,-81.96989562
46366,345198,ASTON PARK HEALTH CARE CENTER,120,81.8,380 BREVARD ROAD,ASHEVILLE,28806,35.562613,-82.595038
46371,345199,CAROL WOODS,30,17.2,750 WEAVER DAIRY ROAD,CHAPEL HILL,27514,35.9645116,-79.035976
46376,345201,PELICAN HEALTH AT CHARLOTTE,120,81.3,2616 EAST 5TH STREET,CHARLOTTE,28204,35.2057032,-80.81183716
46381,345202,CAPITAL NURSING AND REHABILITATION CENTER,125,76.8,3000 HOLSTON LANE,RALEIGH,27610,35.78573831,-78.58220159
46386,345203,LIFE CARE CENTER OF BANNER ELK,118,65.7,185 NORWOOD HOLLOW ROAD,BANNER ELK,28604,36.135286,-81.848959
46391,345204,STONECREEK HEALTH AND REHABILITATION,120,91.8,455 VICTORIA ROAD,ASHEVILLE,28801,35.56619434,-82.5564293
46396,345205,WESTWOOD HILLS NURSING AND REHABILITATION CENTER,176,105.6,1016 FLETCHER STREET,WILKESBORO,28697,36.1327969,-81.16743842
46401,345206,MADISON HEALTH AND REHABILITATION,100,83.4,345 MANOR ROAD,MARS HILL,28754,35.83268377,-82.5290775
46406,345207,LIBERTY COMMONS N&R CTR OF COLUMBUS CTY,107,66.5,1402 PINCKNEY STREET,WHITEVILLE,28472,34.34632523,-78.70209813
46411,345208,ACCORDIUS HEALTH AT BREVARD,147,61,115 N COUNTRY CLUB ROAD,BREVARD,28712,35.22473158,-82.73755201
46416,345209,BROOKRIDGE RETIREMENT COMMUNITY,38,31.5,1199 HAYES FOREST DRIVE,WINSTON-SALEM,27106,36.146125,-80.28616
46421,345210,ELIZABETHTOWN HEALTHCARE & REHAB CENTER,94,64.3,208 MERCER MILL ROAD,ELIZABETHTOWN,28337,34.6185828,-78.6037621
46426,345211,RIVERPOINT CREST NURSING AND REHABILITATION CENTER,105,87.6,2600 OLD CHERRY POINT ROAD,NEW BERN,28563,35.066296,-77.014073
46431,345212,BETHESDA HEALTH CARE FACILITY,85,52.5,3532 DUNN ROAD,EASTOVER,28301,35.09207048,-78.78701992
46436,345213,UNIVERSAL HEALTH CARE LILLINGTON,129,118.2,1995 EAST CORNELIUS HARNETT BOULEVARD,LILLINGTON,27546,35.40807785,-78.76973155
46441,345215,RIVER TRACE NURSING AND REHABILITATION CENTER,140,90.4,250 LOVERS LANE,WASHINGTON,27889,35.5503018,-77.0358213
46446,345216,WESTFIELD REHABILITATION AND HEALTH CENTER,83,51,3100 TRAMWAY ROAD,SANFORD,27330,35.438063,-79.207283
46451,345217,PREMIER NURSING AND REHABILITATION CENTER,239,116.3,225 WHITE STREET,JACKSONVILLE,28546,34.760082,-77.387869
46456,345218,MARY GRAN NURSING CENTER,212,85.2,120 SOUTHWOOD DRIVE,CLINTON,28329,34.98120827,-78.30787397
46461,345219,MAGNOLIA LANE NURSING AND REHABILITATION CENTER,121,44.9,107 MAGNOLIA DRIVE,MORGANTON,28655,35.7256123,-81.69369133
46466,345221,BRIAN CENTER HEALTH & REHABILITATION WEAVERVILLE,122,92.1,78 WEAVER BOULEVARD,WEAVERVILLE,28787,35.7044344,-82.571772
46471,345222,AUTUMN CARE OF DREXEL,100,74.8,307 OAKLAND AVENUE,MORGANTON,28655,35.760348,-81.600164
46476,345223,BLUE RIDGE HEALTH AND REHABILITATION CENTER,150,72.5,1510 HEBRON STREET,HENDERSONVILLE,28739,35.305894,-82.469428
46481,345225,SIGNATURE HEALTHCARE OF CHAPEL HILL,108,74.8,1602 E FRANKLIN STREET,CHAPEL HILL,27514,35.9336699,-79.0295054
46486,345226,PEAK RESOURCES-OUTER BANKS,126,75.7,430  WEST HEALTH CENTER DRIVE,NAGS HEAD,27959,35.978284,-75.648852
46491,345227,PELICAN HEALTH REIDSVILLE,110,82.1,543 MAPLE AVENUE,REIDSVILLE,27320,36.35162288,-79.66896519
46496,345228,RIDGEWOOD LIVING & REHAB CENTER,128,91.8,1624 HIGHLAND DRIVE,WASHINGTON,27889,35.55471049,-77.02281658
46501,345229,PEAK RESOURCES - SHELBY,100,71.6,1101 NORTH MORGAN STREET,SHELBY,28150,35.305104,-81.541223
46506,345232,BRIAN CENTER HEALTH & REHAB HICKORY,150,105.6,3031 TATE BOULEVARD SE,HICKORY,28602,35.7284612,-81.3057603
46511,345233,DEER PARK HEALTH & REHABILITATION,140,84.4,306 DEER PARK ROAD,NEBO,28761,35.652963,-81.884969
46516,345234,LUMBERTON HEALTH AND REHAB CENTER,122,94.3,1555 WILLIS AVENUE,LUMBERTON,28358,34.62826449,-78.99214156
46521,345235,TWIN LAKES COMMUNITY,100,68.9,3801 WADE COBLE DRIVE,BURLINGTON,27215,36.08291,-79.521945
46526,345236,ACCORDIUS HEALTH AT WILMINGTON,120,75.4,820 WELLINGTON AVENUE,WILMINGTON,28401,34.19515027,-77.93190106
46531,345237,BARBOUR COURT NURSING AND REHABILITATION CENTER,165,135.2,515 BARBOUR ROAD,SMITHFIELD,27577,35.54202856,-78.36047808
46536,345238,WHITE OAK MANOR - CHARLOTTE,180,104.4,4009 CRAIG AVENUE,CHARLOTTE,28211,35.18590196,-80.78315043
46541,345240,WARREN HILLS NURSING CENTER,140,81,864 US HWY 158 BUSINESS WEST,WARRENTON,27589,36.417981,-78.170606
46546,345241,BRIAN CENTER HEALTH & REHAB/EDEN,112,98,226 N OAKLAND AVENUE,EDEN,27288,36.507551,-79.7788377
46551,345242,THE FOUNTAINS AT THE ALBEMARLE,40,24.1,200 TRADE STREET,TARBORO,27886,35.89558,-77.535096
46556,345243,ACCORDIUS HEALTH AT CHARLOTTE,116,82.8,5939 REDDMAN ROAD,CHARLOTTE,28212,35.20108621,-80.75084357
46561,345244,HARBORVIEW HEALTH CARE CENTER,122,,812 SHEPARD STREET,MOREHEAD CITY,28557,34.7200082,-76.71348321
46566,345245,PENDER MEMORIAL HOSP SNF,43,30.2,507 E FREMONT STREET,BURGAW,28425,34.55067,-77.91992
46571,345246,HICKORY FALLS HEALTH AND REHABILITATION,120,109,100 SUNSET STREET,GRANITE FALLS,28630,35.80057,-81.449604
46576,345247,VALLEY NURSING CENTER,183,60.4,581 NC HIGHWAY 16 SOUTH,TAYLORSVILLE,28681,35.917803,-81.177955
46581,345249,UNC ROCKINGHAM REHAB & NURSING CARE CENTER,121,67.5,205 EAST KINGS HIGHWAY,EDEN,27288,36.49352795,-79.73878675
46586,345250,BRIAN CENTER HEALTH & RETIREMENT/LINCOLNTON,117,85.2,515 S GENERALS BOULEVARD,LINCOLNTON,28093,35.45584471,-81.24267214
46591,345252,WARSAW NURSING AND REHABILITATION CENTER,100,64.8,214 LANEFIELD ROAD,WARSAW,28398,34.99231438,-78.07510744
46596,345253,THE LODGE AT MILLS RIVER,50,38.8,5593 OLD HAYWOOD ROAD,MILLS RIVER,28759,35.42614184,-82.57439296
46601,345254,MONROE REHABILITATION CENTER,147,100.7,1212 SUNSET DRIVE EAST,MONROE,28112,34.968994,-80.528967
46606,345255,CAROLINA CARE HEALTH AND REHABILITATION,107,83.1,111 HARRILSON STREET,CHERRYVILLE,28021,35.392568,-81.394004
46611,345258,TRANSITIONAL HEALTH SERVICES OF KANNAPOLIS,107,63.9,1810 CONCORD LAKE ROAD,KANNAPOLIS,28083,35.458369,-80.60112
46616,345260,ROCKY MOUNT REHABILITATION CENTER,117,75.6,160 S WINSTEAD AVENUE,ROCKY MOUNT,27804,35.96247683,-77.84910243
46621,345261,ALLEGHANY CENTER,90,66.6,179 COMBS STREET,SPARTA,28675,36.5055926,-81.12547571
46626,345262,BRIAN CENTER HEALTH & REHAB/HERTFORD,78,48.1,1300 DON JUAN ROAD,HERTFORD,27944,36.20213436,-76.49308835
46631,345263,MACON VALLEY NURSING AND REHABILITATION CENTER,200,59.1,3195 OLD MURPHY ROAD,FRANKLIN,28734,35.1736017,-83.4007679
46636,345264,STANLEY TOTAL LIVING CENTER,106,59.3,514 OLD MOUNT HOLLY ROAD,STANLEY,28164,35.3549866,-81.0845482
46641,345265,BRIAN CENTER HEALTH & REHAB/YANCEYVILLE,157,112.1,1086 MAIN STREET NORTH,YANCEYVILLE,27379,36.41379,-79.34744
46646,345266,THE CARROLTON OF PLYMOUTH,114,79.7,1084 US 64 EAST,PLYMOUTH,27962,35.86388,-76.72711
46651,345267,"BLADEN EAST HEALTH AND REHAB, LLC",90,60,804 S POPLAR STREET,ELIZABETHTOWN,28337,34.62026762,-78.61107943
46656,345268,AUTUMN CARE OF MARSHVILLE,110,80.2,311 W PHIFER STREET,MARSHVILLE,28103,34.98875895,-80.37167095
46661,345269,AUTUMN CARE OF SALISBURY,97,82.8,1505 BRINGLE FERRY ROAD,SALISBURY,28146,35.66277982,-80.44635469
46666,345270,BRIAN CENTER HEALTH & REHABILITATION/SPRUCE PINES,127,68.3,218 LAUREL CREEK COURT,SPRUCE PINE,28777,35.90679549,-82.08825511
46671,345273,KINDRED HOSPITAL EAST GREENSBORO,23,18.4,2401 SOUTH SIDE BOULEVARD,GREENSBORO,27406,36.04868395,-79.77108654
46676,345277,WOODLAND HILL CENTER,100,65.5,400 VISION DRIVE,ASHEBORO,27203,35.73464471,-79.81858682
46681,345278,NORTHERN REGIONAL HOSPITAL,33,30,830 ROCKFORD STREET,MOUNT AIRY,27030,36.48911485,-80.61229628
46686,345279,THE CARROLTON OF NASH,141,95.2,7369 HUNTER HILL ROAD,ROCKY MOUNT,27804,35.98665926,-77.84634984
46691,345280,AUTUMN CARE OF RAEFORD,132,100.7,1206 N FULTON STREET,RAEFORD,28376,34.99202462,-79.22837909
46696,345281,STANLY MANOR,90,48,625 BETHANY CHURCH ROAD,ALBEMARLE,28001,35.39707172,-80.21351045
46701,345282,CLEVELAND PINES,120,82.5,1404 N LAFAYETTE STREET,SHELBY,28150,35.32028593,-81.53824086
46706,345283,THE CITADEL MOORESVILLE,130,89.4,550 GLENWOOD DRIVE,MOORESVILLE,28115,35.5697628,-80.8084274
46711,345284,THE OAKS,131,91.1,901 BETHESDA ROAD,WINSTON SALEM,27103,36.077565,-80.294
46716,345285,ACCORDIUS HEALTH AT HENDERSONVILLE LLC,134,78.6,200 HERITAGE CIRCLE,HENDERSONVILLE,28791,35.3662,-82.49058
46721,345286,THE CITADEL SALISBURY,160,71.1,710 JULIAN ROAD,SALISBURY,28147,35.64265863,-80.49370721
46726,345288,"COMPASS HEALTHCARE AND REHAB ROWAN, LLC",70,57.7,1404 S SALISBURY AVENUE,SPENCER,28159,35.68236421,-80.44501006
46731,345289,CURRITUCK HEALTH & REHAB CENTER,100,51.1,3907 CARATOKE HIGHWAY,BARCO,27917,36.38942243,-75.97856017
46736,345291,UNIVERSAL HEALTH CARE / OXFORD,160,110.4,500 PROSPECT AVENUE,OXFORD,27565,36.327222,-78.598413
46741,345292,GRANTSBROOK NURSING AND REHABILITATION CENTER,96,71.5,290 KEEL ROAD,GRANTSBORO,28529,35.140174,-76.823506
46746,345293,RICHMOND PINES HEALTHCARE AND REHABILITATION CENTE,105,77.5,HIGHWAY 177 S BOX 1489,HAMLET,28345,34.85166,-79.74905
46751,345294,AUTUMN CARE OF SHALLOTTE,100,79.8,237 MULBERRY STREET,SHALLOTTE,28459,33.97699342,-78.38851875
46756,345296,MARGATE HEALTH AND REHAB CENTER,210,91.1,540 WAUGH STREET,JEFFERSON,28640,36.42393081,-81.45615566
46761,345297,SCOTIA VILLAGE-SNF,58,33.4,2200 ELM DRIVE,LAURINBURG,28352,34.73425,-79.48787
46766,345298,THE LAURELS OF PENDER,98,71.9,311 S CAMPBELL STREET,BURGAW,28425,34.549267,-77.920488
46771,345301,WHITE OAK MANOR - BURLINGTON,160,76.9,323 BALDWIN ROAD,BURLINGTON,27217,36.10094,-79.419614
46776,345302,VERO HEALTH & REHAB OF SYLVA,106,75.3,417 CLOVERDALE ROAD,SYLVA,28779,35.3347256,-83.22701072
46781,345303,THE LAURELS OF GREENTREE RIDGE,98,78.6,70 SWEETEN CREEK ROAD,ASHEVILLE,28803,35.5635366,-82.53158816
46786,345304,"ACCORDIUS HEALTH AT MIDWOOD, LLC",100,54.8,2727 SHAMROCK DRIVE,CHARLOTTE,28205,35.23819829,-80.78046588
46791,345305,SMOKY RIDGE HEALTH & REHABILITATION,140,67.9,310 PENSACOLA ROAD,BURNSVILLE,28714,35.90939793,-82.29235571
46796,345306,IREDELL MEMORIAL HOSPITAL INC,48,34.9,557 BROOKDALE DRIVE,STATESVILLE,28677,35.80037305,-80.87873772
46801,345307,THE IVY AT GASTONIA LLC,50,30.1,4414 WILKINSON BLVD,GASTONIA,28056,35.25523,-81.10281
46806,345309,LIBERTY COMMONS NSG AND REHAB CTR OF HALIFAX CTY,50,28.8,101 CAROLINE AVENUE,WELDON,27890,36.416704,-77.608658
46811,345310,PIEDMONT CROSSING,114,71.5,100 HEDRICK DRIVE,THOMASVILLE,27360,35.84301656,-80.10619395
46816,345311,ROXBORO HEALTHCARE & REHAB CENTER,140,70.8,901 RIDGE ROAD,ROXBORO,27573,36.410124,-78.98343
46821,345312,BRIAN CENTER HEALTH & REHAB/HENDERSONVILLE,120,70.5,1870 PISGAH DRIVE,HENDERSONVILLE,28791,35.32478,-82.49389
46826,345313,NORTHAMPTON NURSING AND REHABILITATION CENTER,80,54.2,HWY 305 NORTH,JACKSON,27845,36.409792,-77.432332
46831,345314,"FAIR HAVEN OF FOREST CITY, LLC",100,70,830 BETHANY CHURCH ROAD,FOREST CITY,28043,35.3164143,-81.8824191
46836,345315,THE CARROLTON OF LUMBERTON,90,,1170 LINKHAW ROAD,LUMBERTON,28358,34.64408792,-78.990976
46841,345316,SENIOR CITIZENS HOME,60,42.7,2275 RUIN CREEK ROAD,HENDERSON,27537,36.307559,-78.456314
46846,345317,BRIAN CENTER HEALTH & RETIREMENT CLAYTON,90,70.4,204 DAIRY ROAD,CLAYTON,27520,35.6360428,-78.4711998
46851,345318,BRUNSWICK COVE NURSING CENTER,175,96,1478 RIVER ROAD,WINNABOW,28479,34.185683,-77.987621
46856,345319,ELDERBERRY HEALTH CARE,80,70.5,415 ELDERBERRY LANE,MARSHALL,28753,35.798378,-82.653655
46861,345321,KERR LAKE NURSING AND REHABILITATION CENTER,92,65,1245 PARK AVENUE,HENDERSON,27536,36.32296839,-78.41705362
46866,345322,THE LAURELS OF HENDERSONVILLE,100,71.8,290 CLEAR CREEK ROAD,HENDERSONVILLE,28792,35.34299825,-82.45666777
46871,345323,BRIAN CENTER HEALTH & REHABILITATION WALLACE,80,56.4,647 S RAILROAD STREET BOX 966,WALLACE,28466,34.72699,-77.99209
46876,345325,THE CARROLTON OF DUNN,100,63.1,711 SUSAN TART ROAD,DUNN,28335,35.30433314,-78.62861161
46881,345326,WILLOWBROOKE COURT SC CTR AT MATTHEWS GLEN,16,8.6,740 PAVILION VIEW DRIVE,MATTHEWS,28105,35.11198,-80.72757
46886,345328,GIVENS HEALTH CENTER,70,40.5,600 BARRETT LANE,ASHEVILLE,28803,35.50518,-82.509749
46891,345329,GATEWAY REHABILITATION AND HEALTHCARE,100,76.2,2030 HARPER AVENUE NW,LENOIR,28645,35.90128595,-81.56393785
46896,345330,THE GRAYBRIER NURS & RETIREMENT CT,128,69.5,116 LANE DRIVE,TRINITY,27370,35.88242,-79.9447
46901,345331,SARDIS OAKS,124,61.5,5151 SARDIS ROAD,CHARLOTTE,28270,35.15785689,-80.79122013
46906,345332,BRIAN CENTER HEALTH AND REHABILITATION/WILSON,81,70.3,2501 DOWNING STREET SW,WILSON,27895,35.710094,-77.942857
46911,345333,ABBOTTS CREEK CENTER,64,58.7,877 HILL EVERHART ROAD,LEXINGTON,27295,35.851225,-80.228034
46916,345335,FRANKLIN OAKS NURSING AND REHABILITATION CENTER,166,115.9,1704 NC HIGHWAY 39 N,LOUISBURG,27549,36.107304,-78.556701
46921,345336,SIGNATURE HEALTHCARE OF ROANOKE RAPIDS,108,80.4,305 FOURTEENTH STREET,ROANOKE RAPIDS,27870,36.687395,-77.545589
46926,345337,"PEAK RESOURCES - ALAMANCE, INC",142,94.9,215 COLLEGE STREET,GRAHAM,27253,36.07631109,-79.40345974
46931,345339,BRIAN CENTER HEALTH & REHABILITATION/WINDSOR,72,44.9,1306 SOUTH KING STREET,WINDSOR,27983,35.98942063,-76.93060088
46936,345340,MAPLE LEAF HEALTH CARE,94,76.9,1101 MAPLE CARE LANE,STATESVILLE,28625,35.809258,-80.843342
46941,345341,SILVER BLUFF INC,131,86.5,100 SILVER BLUFF DRIVE,CANTON,28716,35.48235,-82.8786
46946,345342,BIG ELM RETIREMENT AND NURSING CENTERS,50,36.4,1285 WEST A STREET,KANNAPOLIS,28081,35.513039,-80.632302
46951,345343,BRIAN CENTER HEALTH AND REHABILITATION/GOLDSBORO,130,91.5,1700 WAYNE MEMORIAL DRIVE,GOLDSBORO,27534,35.39389,-77.972654
46956,345344,PELICAN HEALTH HENDERSON LLC,78,47.3,280 SOUTH  BECKFORD DRIVE,HENDERSON,27536,36.33735383,-78.41654777
46961,345345,ACCORDIUS HEALTH AT MONROE,60,43.2,204 OLD HIGHWAY 74 EAST,MONROE,28112,34.97577,-80.49564
46966,345348,WHISPERING PINES NURSING & REHAB CENTER,86,58.9,523 COUNTRY CLUB DRIVE,FAYETTEVILLE,28301,35.10415339,-78.88724061
46971,345349,WOODBURY WELLNESS CENTER INC,112,99.2,2778 COUNTRY CLUB DRIVE,HAMPSTEAD,28443,34.396668,-77.644578
46976,345350,COURTLAND TERRACE,77,60.2,2300 ABERDEEN BOULEVARD,GASTONIA,28054,35.268671,-81.13759
46981,345351,AUTUMN CARE OF SALUDA,99,66.1,501 ESSEOLA CIRCLE,SALUDA,28773,35.2440748,-82.34772717
46986,345353,HIGHLAND HOUSE REHABILITATION AND HEALTHCARE,106,84.3,1700 PAMALEE DRIVE,FAYETTEVILLE,28301,35.0902548,-78.92126475
46991,345354,PINEY GROVE NURSING AND REHABILITATION CENTER,92,56.2,728 PINEY GROVE ROAD,KERNERSVILLE,27284,36.1376747,-80.06969152
46996,345355,GRAHAM HEALTHCARE AND REHABILITATION CENTER,80,45.7,811 SNOWBIRD ROAD,ROBBINSVILLE,28771,35.315444,-83.813919
47001,345356,RICH  SQUARE NURSING & REHAB,69,57.9,300 NORTH MAIN STREET,RICH SQUARE,27869,36.277574,-77.28099
47006,345357,PRUITTHEALTH-NEUSE,110,72.2,1303 HEALTH DRIVE,NEW BERN,28560,35.11398256,-77.06886986
47011,345358,LOUISBURG HEALTHCARE & REHABILITATION CENTER,92,55.6,202 SMOKETREE WAY,LOUISBURG,27549,36.114432,-78.299189
47016,345359,ACCORDIUS HEALTH AT CREEKSIDE CARE,151,96,604 STOKES STREET EAST,AHOSKIE,27910,36.27768146,-76.98442156
47021,345362,BRIAN CENTER HEALTH & RETIREMENT/CABARRUS,90,77.4,250 BISHOP LANE,CONCORD,28025,35.45321528,-80.60423265
47026,345363,"COMPASS HEALTHCARE AND REHAB HAWFIELDS, INC",117,74.5,2502 S NC 119,MEBANE,27302,36.04753,-79.31265
47031,345365,SIGNATURE HEALTHCARE OF KINSTON,106,86.5,907 CUNNINGHAM ROAD,KINSTON,28501,35.29371557,-77.56466729
47036,345366,GREENDALE FOREST NURSING AND REHABILITATION CENTER,115,78.9,1304 SE SECOND STREET,SNOW HILL,28580,35.433854,-77.66008
47041,345367,GOLDEN YEARS NURSING HOME,58,43.3,7348 NORTH WEST STREET,FALCON,28342,35.196025,-78.651659
47046,345369,REX REHAB & NSG CARE CENTER,120,86.8,4210 LAKE BOONE TRAIL,RALEIGH,27607,35.815532,-78.70016
47051,345370,PINEHURST HEALTHCARE & REHABILITATION CENTER,144,93.1,300 BLAKE BOULEVARD,PINEHURST,28374,35.17074285,-79.46484851
47056,345371,PRUITTHEALTH-TRENT,116,96.2,836 HOSPITAL DRIVE,NEW BERN,28560,35.11255466,-77.06548781
47061,345372,WILSON PINES NURSING AND REHABILITATION CENTER,95,81.2,403 CRESTVIEW AVENUE,WILSON,27893,35.71521795,-77.94262813
47066,345373,LIBERTY COMMONS NRSG & REHAB CNTR OF SOUTHPORT LLC,99,52.4,630 FODALE AVENUE,SOUTHPORT,28461,33.930724,-78.020299
47071,345375,ACCORDIUS HEALTH AT SCOTLAND MANOR,62,41.8,920 JR HIGH SCHOOL ROAD,SCOTLAND NECK,27874,36.12703385,-77.42617104
47076,345376,THE CARROLTON OF FAYETTEVILLE,120,,2461 LEGION ROAD,FAYETTEVILLE,28306,35.01256,-78.90716
47081,345377,EAST CAROLINA REHAB AND WELLNESS,130,66.3,2575 W 5TH STREET,GREENVILLE,27834,35.6129875,-77.3972948
47086,345378,PRUITTHEALTH-ROCKINGHAM,120,75.8,804 SOUTH LONG DRIVE,ROCKINGHAM,28379,34.9310398,-79.75125167
47091,345380,VILLAGE GREEN HEALTH AND REHABILITATION,170,95,1601 PURDUE DRIVE,FAYETTEVILLE,28304,35.041627,-78.923607
47096,345381,VILLAGE CARE OF KING,96,80.2,440 INGRAM ROAD,KING,27021,36.26821,-80.370733
47101,345383,SCOTTISH PINES REHABILITATION AND NURSING CENTER,149,89.6,620 JOHNS ROAD,LAURINBURG,28352,34.760509,-79.466435
47106,345384,PRUITTHEATH-FARMVILLE,56,47.9,4351 SOUTH MAIN STREET,FARMVILLE,27828,35.57840412,-77.59347803
47111,345385,CARDINAL HEALTHCARE AND REHAB,63,45.5,931 N ASPEN STREET,LINCOLNTON,28092,35.48181215,-81.26203128
47116,345386,WILKES REGIONAL MEDICAL CTR SN,10,8,1370 WEST D STREET,NORTH WILKESBORO,28659,36.160051,-81.15823652
47121,345388,HUNTER WOODS NURSING AND REHAB,120,75.1,620 TOM HUNTER ROAD,CHARLOTTE,28213,35.27896026,-80.77504337
47126,345389,THE LAURELS OF FOREST GLENN,120,104.3,1101 HARTWELL STREET,GARNER,27529,35.706302,-78.625035
47131,345390,COUNTRYSIDE,60,52.5,7700 US 158 EAST,STOKESDALE,27357,36.23777,-79.95982
47136,345391,HEARTLAND LIVING & REHAB AT THE MOSES H CONE MEM H,107,77.6,1131 NORTH CHURCH STREET,GREENSBORO,27401,36.09153724,-79.78389604
47141,345392,WADESBORO HEALTH & REHAB CENTER,66,55.5,2051 COUNTRY CLUB ROAD,WADESBORO,28170,34.94385016,-80.05192544
47146,345393,PISGAH MANOR HEALTH CARE CENTER,118,79.4,104 HOLCOMBE COVE ROAD,CANDLER,28715,35.571554,-82.672026
47151,345394,BROOK STONE LIVING CENTER,80,38.5,8990 HIGHWAY 17 SOUTH,POLLOCKSVILLE,28573,35.00077771,-77.2239228
47156,345395,PEAK RESOURCES-CHERRYVILLE,54,55.8,7615 DALLAS CHERRYVILLE HIGHWAY,CHERRYVILLE,28021,35.38631235,-81.35007801
47161,345396,SMOKY MOUNTAIN HEALTH AND REHABILITATION CENTER,50,31.8,1349 CRABTREE ROAD,WAYNESVILLE,28785,35.541614,-82.956419
47166,345397,SHORELAND HLTH CARE & RETIREME,89,46.7,200 FLOWER-PRIDGEN DRIVE,WHITEVILLE,28472,34.3878,-78.72367
47171,345400,SKYLAND CARE CENTER,94,73.4,193 ASHEVILLE HIGHWAY,SYLVA,28779,35.37669125,-83.21284374
47176,345401,WILKESBORO HEALTH AND REHABILITATION,111,105.3,204 OLD BRICKYARD ROAD,NORTH WILKESBORO,28659,36.155716,-81.173104
47181,345403,CARY HEALTH AND REHABILITATION,120,87.4,6590 TRYON ROAD,CARY,27518,35.742272,-78.767986
47186,345404,THREE RIVERS HEALTH AND REHAB,60,38.1,1403 CONNER DRIVE,WINDSOR,27983,35.987113,-76.9286
47191,345405,CHARLOTTE HEALTH & REHABILITATION CENTER,90,80.5,1735 TODDVILLE ROAD,CHARLOTTE,28214,35.26157217,-80.9232708
47196,345406,ACCORDIUS HEALTH AND REHABILITATION,70,43.8,38 CARTERS ROAD,GATESVILLE,27938,36.39116,-76.738249
47201,345407,CROSS CREEK HEALTH CARE,50,25,1719 QUARTER ROAD,SWANQUARTER,27885,35.40335,-76.307047
47206,345408,BRIAN CENTER SOUTHPOINT,140,99.6,6000 FAYETTEVILLE ROAD,DURHAM,27713,35.9176587,-78.9321985
47211,345409,PEMBROKE CENTER,84,67.8,310 E WARDELL DRIVE,PEMBROKE,28372,34.68366454,-79.18170957
47216,345410,CENTRAL CONTINUING CARE,120,66.6,1287 NEWSOME STREET,MOUNT AIRY,27030,36.48120191,-80.60184084
47221,345411,HAYWOOD NURSING AND REHABILITATION CENTER,90,51.7,516 WALL STREET,WAYNESVILLE,28786,35.49354091,-82.98233515
47226,345412,BRANTWOOD NH & RETIREMENT CENT,80,50.5,1038 COLLEGE STREET,OXFORD,27565,36.32596169,-78.59449436
47231,345413,FLESHERS FAIRVIEW HEALTH CARE,106,72.3,3016 CANE CREEK ROAD,FAIRVIEW,28730,35.50652759,-82.41684032
47236,345414,"HAYMOUNT REHABILITATION & NURSING CENTER, INC",98,78.9,2346 BARRINGTON CIRCLE,FAYETTEVILLE,28303,35.07100778,-78.91945214
47241,345415,PINEVILLE REHABILITATION AND LIVING CTR,106,53.4,1010 LAKEVIEW DRIVE,PINEVILLE,28134,35.07809773,-80.89813491
47246,345416,BERMUDA VILLAGE RETIREMENT CENTER,36,34.1,142 BERMUDA VILLAGE DRIVE,BERMUDA RUN,27006,35.995618,-80.430653
47251,345417,HILLSIDE NURSING CENTER OF WAKE FOREST,130,87.8,968 EAST WAIT AVENUE,WAKE FOREST,27588,35.97136745,-78.49308848
47256,345418,PELICAN HEALTH AT ASHEVILLE,106,78.7,1984 US HIGHWAY 70,SWANNANOA,28778,35.59407,-82.43257
47261,345419,LEXINGTON HEALTH CARE CENTER,90,76.4,17 CORNELIA DRIVE,LEXINGTON,27292,35.81740476,-80.24121135
47266,345420,ALAMANCE HEALTH CARE CENTER,180,145,1987 HILTON ROAD,BURLINGTON,27217,36.09963588,-79.40342331
47271,345421,THE LAURELS OF CHATHAM,140,111.1,72 CHATHAM BUSINESS PARK,PITTSBORO,27312,35.71909265,-79.16138335
47276,345423,WILSON REHABILITATION AND NURSING CENTER,90,63.2,1705 SOUTH TARBORO STREET,WILSON,27893,35.921855,-77.805309
47281,345425,FAIR HAVEN HOME INC,30,23.9,149 FAIR HAVEN DRIVE,BOSTIC,28018,35.33808,-81.80789
47286,345426,VALLEY VIEW CARE & REHAB CENTER,76,37.9,551 KENT STREET,ANDREWS,28901,35.19582102,-83.83846131
47291,345428,THE LAURELS OF SALISBURY,60,68.6,215 LASH DRIVE,SALISBURY,28147,35.6940481,-80.52298885
47296,345429,PEAK RESOURCES - PINELAKE,90,80.9,801 PINEHURST AVENUE,CARTHAGE,28327,35.335651,-79.41515
47301,345431,BRYAN HEALTH AND REHAB,60,39.7,921 JUNIOR HIGH SCHOOL ROAD,SCOTLAND NECK,27874,36.12932145,-77.42944048
47306,345432,WESTERN NORTH CAROLINA BAPTIST HOME,80,29.9,213 RICHMOND HILL DRIVE,ASHEVILLE,28806,35.613163,-82.584165
47311,345433,CLAY COUNTY CARE CENTER,90,62.8,86 VALLEY HIDEAWAY DRIVE,HAYESVILLE,28904,35.04224288,-83.80947413
47316,345434,CARVER LIVING CENTER,232,149.6,303 EAST CARVER STREET,DURHAM,27704,36.0425751,-78.8936804
47321,345436,WELLINGTON REHABILITATION AND HEALTHCARE,80,52.2,1000 TANDAL PLACE,KNIGHTDALE,27545,35.793497,-78.510154
47326,345437,ECKERD LIVING CENTER,80,50.6,250 HOSPITAL DRIVE,HIGHLANDS,28741,35.086943,-83.18542
47331,345438,THE LAURELS OF SUMMIT RIDGE,60,49.3,100 RICEVILLE ROAD,ASHEVILLE,28805,35.59030334,-82.48624646
47336,345439,"PEAK RESOURCES - BROOKSHIRE, INC",80,53.8,300 MEADOWLANDS DRIVE,HILLSBOROUGH,27278,36.05983,-79.07979
47341,345441,ALEXANDRIA PLACE,60,47.9,1770 OAK HOLLOW ROAD,GASTONIA,28054,35.287277,-81.157995
47346,345442,FORREST OAKES HEALTHCARE CENTER,60,43.1,620 HEATHWOOD DRIVE,ALBEMARLE,28001,35.35467559,-80.1600462
47351,345443,OAK FOREST HEALTH AND REHABILITATION,170,132.6,5680 WINDY HILL DRIVE,WINSTON SALEM,27105,36.19541636,-80.26105445
47356,345445,GLENAIRE,71,59,4000 GLENAIRE CIRCLE,CARY,27511,35.7752774,-78.7851068
47361,345446,COLLEGE PINES HEALTH AND REHABILITATION,100,89.8,95 LOCUST STREET,CONNELLY SPG,28612,35.74587,-81.5214
47366,345447,EMERALD RIDGE REHAB AND CARE CENTER,100,74,25 REYNOLDS MOUNTAIN BOULEVARD,ASHEVILLE,28804,35.64552,-82.57578
47371,345448,MAPLE GROVE HEALTH AND REHABILITATION CENTER,210,116,308 WEST MEADOWVIEW ROAD,GREENSBORO,27406,36.0394251,-79.7958352
47376,345449,UNIVERSAL HEALTH CARE/KING,96,77.7,115 WHITE ROAD,KING,27021,36.28306185,-80.37386922
47381,345450,WESTWOOD HEALTH AND REHABILITATION,68,51.6,625 ASHLAND STREET,ARCHDALE,27263,35.9177768,-79.95733233
47386,345457,BELAIRE HEALTH CARE CENTER,80,72.5,2065 LYON STREET,GASTONIA,28052,35.23329492,-81.20559162
47391,345458,TREYBURN REHABILITATION CENTER,132,83,2059 TORREDGE ROAD,DURHAM,27712,36.0987288,-78.8606277
47396,345459,WILLOWBROOKE COURT SC CTR AT TRYON ESTATES,33,18.9,619 LAUREL LAKE DRIVE,COLUMBUS,28722,35.23276,-82.20149
47401,345460,GUILFORD HEALTH CARE CENTER,110,93.6,2041 WILLOW ROAD,GREENSBORO,27406,36.04021584,-79.76229982
47406,345462,THE OAKS-BREVARD,120,71.2,300 MORRIS ROAD,BREVARD,28712,35.261463,-82.710067
47411,345463,LIFE CARE CENTER OF HENDERSONVILLE,80,59.4,400 THOMPSON STREET,HENDERSONVILLE,28792,35.3375095,-82.4462172
47416,345464,OAK GROVE HEALTH CARE CENTER,60,43.4,518 OLD US HIGHWAY 221,RUTHERFORDTON,28139,35.39397,-81.95517
47421,345465,BAYVIEW NURSING & REHAB CENTER,60,46.2,3003 KENSINGTON PARK DRIVE,NEW BERN,28560,35.14069065,-77.10181437
47426,345466,WILLOWBROOK REHABILITATION AND CARE CENTER,76,62.5,333 EAST LEE STREET,YADKINVILLE,27055,36.126029,-80.652574
47431,345467,NOVANT HEALTH PRESBYTERIAN MEDICAL CENTER-SNU,12,,200 HAWTHORNE LANE,CHARLOTTE,28207,35.21243755,-80.82430051
47436,345468,LIBERTY COMMONS REHABILITATION CENTER,82,66,121 RACINE DRIVE,WILMINGTON,28403,34.24281066,-77.86052271
47441,345471,MECKLENBURG HEALTH & REHABILITATION,100,68.5,2415 SANDY PORTER ROAD,CHARLOTTE,28273,35.1358843,-80.94138561
47446,345472,SOUTHWOOD NURSING AND RETIREMENT,100,47.9,180 SOUTHWOOD DRIVE,CLINTON,28328,34.98226511,-78.30712392
47451,345473,WILORA LAKE HEALTHCARE CENTER,70,43.7,6001 WILORA LAKE ROAD,CHARLOTTE,28212,35.210534,-80.7472
47456,345474,FRIENDS HOMES WEST,20,17.3,6100 W FRIENDLY AVENUE,GREENSBORO,27410,36.087834,-79.897207
47461,345475,TSALI CARE CENTER,72,50.9,55 ECHOTA CHURCH ROAD,CHEROKEE,28719,35.46675,-83.35869
47466,345477,THE OAKS AT SWEETEN CREEK,100,69.6,3864 SWEETEN CREEK ROAD,ARDEN,28704,35.47053331,-82.51455138
47471,345478,HARNETT WOODS NURSING AND REHABILITATION CENTER,100,66.3,604 LUCAS ROAD,DUNN,28334,35.312682,-78.650272
47476,345479,SALEMTOWNE,100,73.3,1550 BABCOCK DRIVE,WINSTON SALEM,27106,36.155274,-80.279099
47481,345481,WOODLANDS NURSING & REHABILITATION CENTER,80,59.6,400 PELT DRIVE,FAYETTEVILLE,28301,35.08795493,-78.91328177
47486,345482,BROOKDALE CARRIAGE CLUB PROVIDENCE,14,4.4,5804 OLD PROVIDENCE ROAD,CHARLOTTE,28226,35.13449231,-80.78463048
47491,345483,SHAIRE NURSING CENTER,60,52.7,1450 SHAIRE CENTER DRIVE,LENOIR,28645,35.854596,-81.53606
47501,345487,CHERRY POINT BAY NURSING AND REHABILITATION CENTER,70,55.7,110 MCCOTTER BOULEVARD,HAVELOCK,28532,34.87866688,-76.88583208
47506,345489,SATURN NURSING AND REHABILITATION CENTER,120,94,1930 WEST SUGAR CREEK ROAD,CHARLOTTE,28262,35.28908709,-80.79525451
47511,345490,AYDEN COURT NURSING AND REHABILITATION CENTER,82,70.1,128 SNOW HILL ROAD,AYDEN,28513,35.284487,-77.57714
47516,345491,CROATAN RIDGE NURSING AND REHABILITATION CENTER,64,42.9,210 FOXHALL ROAD,NEWPORT,28570,34.799235,-76.87
47521,345492,NC STATE VETERANS HOME - FAYETTEVILLE,150,113.9,214 COCHRAN AVENUE,FAYETTEVILLE,28301,35.09102786,-78.87418829
47526,345493,HENDERSONVILLE HEALTH AND REHABILITATION,130,95.2,104 COLLEGE DRIVE,FLAT ROCK,28731,35.30308,-82.417569
47531,345494,PEAK RESOURCES -  GASTONIA,104,79.5,2780 X-RAY DRIVE,GASTONIA,28054,35.27582693,-81.14036189
47536,345495,THE STEWART HEALTH CENTER,56,41.1,6920 MARCHING DUCK DRIVE,CHARLOTTE,28210,35.13596839,-80.85266283
47541,345496,LIBERTY COMMONS NURSING & REHAB ALAMANCE,90,57,791 BOONE STATION DRIVE,BURLINGTON,27215,36.072521,-79.502814
47546,345499,LITCHFORD FALLS HEALTHCARE,70,74.2,8200 LITCHFORD ROAD,RALEIGH,27615,35.890189,-78.602515
47551,345500,WINDSOR POINT CONTINUING CARE,45,18.4,1221 BROAD STREET,FUQUAY VARINA,27526,35.60087,-78.80377
47556,345501,CROASDAILE VILLAGE,110,72.2,2600 CROASDAILE FARM PARKWAY,DURHAM,27705,36.0475586,-78.9387689
47561,345502,LAKE PARK NURSING AND REHABILITATION CENTER,120,69.1,3315 FAITH CHURCH ROAD,INDIAN TRAIL,28079,35.07758735,-80.63668549
47566,345503,LIBERTY COMMONS NSG & REHAB  CTR OF ROWAN COUNTY,90,65.6,4412 SOUTH MAIN STREET,SALISBURY,28147,35.62349978,-80.52941539
47571,345505,CAROLINA REHAB CENTER OF CUMBERLAND,136,121.8,4600 CUMBERLAND ROAD,FAYETTEVILLE,28306,35.01832,-78.918544
47576,345506,WHITESTONE  A MASONIC AND EASTERN STAR COMMUNITY,60,26.7,700 SOUTH HOLDEN ROAD,GREENSBORO,27407,36.064149,-79.847964
47581,345507,AUTUMN CARE OF MYRTLE GROVE,90,78.8,5725 CAROLINA BEACH ROAD,WILMINGTON,28412,34.155764,-77.908926
47586,345508,UNC REX REHAB & NURSING CARE CENTER OF APEX,107,74.3,911 SOUTH HUGHES STREET,APEX,27502,35.7227646,-78.8510976
47591,345509,ACCORDIUS HEALTH AT ABERDEEN,90,59.9,915 PEE DEE ROAD,ABERDEEN,28315,35.11838473,-79.41604446
47596,345510,PRODIGY TRANSITIONAL REHAB,118,80.7,911 WESTERN BOULEVARD,TARBORO,27886,35.89564136,-77.55553132
47601,345511,AUTUMN CARE OF STATESVILLE,103,63.9,2001 VANHAVEN DRIVE,STATESVILLE,28625,35.794902,-80.850841
47606,345512,CYPRESS GLEN RETIREMENT COMMUNITY,6,4.7,1000 HICKORY STREET,GREENVILLE,27858,35.61049425,-77.34869536
47611,345513,TOWER NURSING AND REHABILITATION CENTER,180,70,3609 BOND STREET,RALEIGH,27604,35.80273813,-78.58184637
47616,345514,AUTUMN CARE OF NASH,60,43.8,1210 EASTERN AVENUE,NASHVILLE,27856,35.9708272,-77.9372469
47621,345515,PRUITTHEALTH-TOWN CENTER,70,47.9,6300 ROBERTA ROAD,HARRISBURG,28075,35.327001,-80.648636
47626,345516,CONOVER NURSING AND REHABILITATION CENTER,90,68.9,920 4TH STREET SOUTHWEST,CONOVER,28613,35.70378592,-81.23262355
47631,345518,INN AT QUAIL HAVEN VILLAGE,60,33.5,155 BLAKE BOULEVARD,PINEHURST,28374,35.17092129,-79.46566805
47636,345519,LIBERTY COMMONS NSG & REHAB CTR OF JOHNSTON CTY,100,81,2315 HIGHWAY 242 NORTH,BENSON,27504,35.40369,-78.54312
47641,345520,PELICAN HEALTH THOMASVILLE,120,65.1,1028 BLAIR STREET,THOMASVILLE,27360,35.89003028,-80.06395641
47646,345522,UNIVERSAL HEALTH CARE/FLETCHER,90,69.4,86 OLD AIRPORT ROAD,FLETCHER,28732,35.4414583,-82.50014693
47651,345523,UNIVERSAL HEALTH CARE/RAMSEUR,90,75,7166 JORDON ROAD,RAMSEUR,27316,35.741324,-79.642423
47656,345525,THE GARDENS OF TAYLOR GLEN RET COM,8,1.5,3700 TAYLOR GLEN LANE,CONCORD,28027,35.3829,-80.67233
47661,345526,CAROLINA REHAB CENTER OF BURKE,90,78,3647 MILLER BRIDGE ROAD,CONNELLY SPG,28612,35.713443,-81.468698
47666,345528,RIVER LANDING AT SANDY RIDGE,60,45.8,1575 JOHN KNOX DRIVE,COLFAX,27235,36.064134,-80.015489
47671,345529,UNIVERSAL HEALTH CARE/NORTH RALEIGH,132,96.1,5201 CLARKS FORK DRIVE NW,RALEIGH,27616,35.889802,-78.556329
47676,345530,PENN NURSING CENTER,82,66.2,618-A S MAIN STREET,REIDSVILLE,27320,36.35285635,-79.66646987
47681,345531,NC STATE VETERANS HOME - SALISBURY,99,62.3,"1601 BRENNER AVE, BUILDNG #10",SALISBURY,28145,35.795543,-78.64439
47686,345532,LIBERTY COMMONS NSG AND REHAB CTR OF LEE COUNTY,80,50.6,310 COMMERCE DRIVE,SANFORD,27332,35.42140306,-79.12512329
47691,345533,THE CEDARS OF CHAPEL HILL,12,2.2,101 GREEN CEDAR LANE,CHAPEL HILL,27517,35.909448,-79.0073073
47696,345534,SANFORD HEALTH & REHABILITATION CO,131,98.7,2702 FARRELL ROAD,SANFORD,27330,35.568993,-79.124867
47701,345535,ADAMS FARM LIVING & REHABILITATION,120,85.2,5100 MACKAY ROAD,JAMESTOWN,27282,36.017309,-79.900447
47706,345537,"PEAK RESOURCES-WILMINGTON, INC",110,77.1,2305 SILVER STREAM LANE,WILMINGTON,28401,34.19725384,-77.93327427
47711,345538,PRUITTHEALTH-RALEIGH,150,89.8,2420 LAKE WHEELER ROAD,RALEIGH,27603,35.7478915,-78.67529015
47716,345539,THE ARBOR,16,2.7,300 CLYNELISH CLOSE,PITTSBORO,27312,35.720904,-79.175653
47721,345541,OLDE KNOX COMMONS AT THE VILLAGES OF MECKLENBURG,114,68.2,13825 HUNTON LANE,HUNTERSVILLE,28078,35.4188439,-80.86703
47726,345542,THE FOREST AT DUKE INC,4,1.5,2701 PICKETT ROAD,DURHAM,27705,35.9739216,-78.9486183
47731,345543,BERMUDA COMMONS NURSING AND REHABILITATION CENTER,117,66.9,316 NC HIGHWAY 801 SOUTH,ADVANCE,27006,35.944643,-80.408091
47736,345544,ASBURY HEALTH AND REHABILITATION CENTER,120,90.4,3211 BISHOPS WAY LANE,CHARLOTTE,28215,35.231066,-80.770089
47741,345545,TWIN LAKES COMMUNITY MEMORY CARE,16,12,3810 HERITAGE DRIVE,BURLINGTON,27215,36.084478,-79.518846
47746,345546,THE ROSEWOOD HEALTH CENTER,36,34.8,8710 CYPRESS CLUB DRIVE,RALEIGH,27615,35.89780766,-78.65983
47751,345547,CAMDEN HEALTH AND REHABILITATION,135,119.4,1 MARITHE COURT,GREENSBORO,27407,36.0495407,-79.883146
47756,345548,ASHTON HEALTH AND REHABILITATION,134,99.7,5533 BURLINGTON ROAD,MCLEANSVILLE,27301,36.08778485,-79.66566126
47761,345549,UNIVERSAL HEALTH CARE / BRUNSWICK,90,72.7,1070 OLD OCEAN HIGHWAY,BOLIVIA,28422,34.064441,-78.150684
47766,345550,WHITE OAK OF WAXHAW,100,81,700 HOWIE MINE ROAD,WAXHAW,28173,34.926514,-80.735251
47771,345551,PRUITTHEALTH-CAROLINA POINT,138,86.2,5935 MOUNT SINAI ROAD,DURHAM,27705,35.989785,-78.991157
47776,345552,THE SHANNON GRAY REHABILITATION & RECOVERY CENTER,150,64.2,2005 SHANNON GRAY COURT,JAMESTOWN,27282,35.9891798,-79.9506015
47781,345553,AUTUMN CARE OF FAYETTEVILLE,90,72.5,1401 71ST SCHOOL ROAD,FAYETTEVILLE,28314,35.04427557,-79.00763085
47786,345554,TRINITY GROVE,100,88.2,631 JUNCTION CREEK DRIVE,WILMINGTON,28412,34.142809,-77.888822
47791,345555,HILLCREST RALEIGH AT CRABTREE VALLEY,134,88.2,3830 BLUE RIDGE ROAD,RALEIGH,27612,35.8318196,-78.6813611
47796,345556,DEERFIELD EPISCOPAL  RETIREMENT,62,48.1,1617  HENDERSONVELLE ROAD,ASHEVILLE,28803,35.51305,-82.52757
47801,345557,AZALEA HEALTH & REHAB CENTER,80,61.4,3800 INDEPENDENCE BOULEVARD,WILMINGTON,28412,34.17846621,-77.92252157
47806,345558,NC STATE VETERANS HOME-BLACK MOUNTAIN,100,88.5,62 LAKE EDEN ROAD,BLACK MOUNTAIN,28711,35.622629,-82.366684
47811,345559,HOMESTEAD HILLS,40,19.5,2101 HOMESTEAD HILLS DRIVE,WINSTON SALEM,27103,36.057015,-80.303972
47816,345560,NC STATE VETERANS HOME-KINSTON,100,85.9,2150 HULL ROAD,KINSTON,28504,35.28133111,-77.62136103
47821,345561,UNIVERSAL HEALTH CARE/FUQUAY-VARINA,100,89,410 S JUDD PARKWAY SE,FUQUAY VARINA,27526,35.57852546,-78.78573212
47826,345562,CLEAR CREEK NURSING & REHABILITATION CENTER,120,55,10506 CLEAR CREEK COMMERCE DRIVE,MINT HILL,28227,35.21928806,-80.63830388
47831,345563,PAVILION HEALTH CENTER AT BRIGHTMORE,108,82.7,10011 PROVIDENCE ROAD WEST,CHARLOTTE,28277,35.0375279,-80.83065991
47836,345564,SHARON TOWERS,19,7.2,5100 SHARON ROAD,CHARLOTTE,28210,35.14297676,-80.83370818
47841,345565,TRINITY ELMS,100,75.5,7449 FAIR OAKS DRIVE,CLEMMONS,27012,36.02368596,-80.40648589
47846,345566,PRUITTHEALTH-UNION POINTE,90,77.9,3510 WEST HIGHWAY 74,MONROE,28110,35.032903,-80.589725
47851,345567,AUTUMN CARE OF CORNELIUS,102,85.1,19530 MOUNT ZION PARKWAY,CORNELIUS,28031,35.47320104,-80.85103421
47856,345568,DAVIS HEALTH & WELLNESS CTR AT CAMBRIDGE VILLAG,20,15.8,"83 CAVALIER DRIVE, STE 200",WILMINGTON,28405,34.23338,-77.83456
47861,345569,SPRINGBROOK NURSING & REHABILITATION  CENTER,100,87.2,195 SPRINGBROOK AVENUE,CLAYTON,27520,35.62891,-78.50713
47866,345570,HUNTERSVILLE HEALTH & REHAB CENTER,90,85.3,13835 BOREN STREET,HUNTERSVILLE,28078,35.40331463,-80.8662872
47871,345571,BRADLEY CREEK HEALTH CENTER,30,29.5,740 DIAMOND SHOALS ROAD,WILMINGTON,28403,34.2367624,-77.8533418
47876,345572,THE CARDINAL AT NORTH HILLS,15,11,311 GARDEN AT NORTH HILLS STREET,RALEIGH,27609,35.8354006,-78.6356934
47881,345573,ARBOR ACRES UNITED METHODIST RETIREMENT COMMUNITY,6,3.5,1250 ARBOR ROAD,WINSTON SALEM,27104,36.0990119,-80.2788589
47886,345574,BELLAROSE NURSING AND REHAB,100,70.3,200 BELLAROSE LAKE WAY,GARNER,27529,35.6702495,-78.6020955
47891,345575,BRUNSWICK HEALTH & REHAB CENTER,100,68.7,9600 NO 5 SCHOOL ROAD,ASH,28420,33.953889,-78.598015
47896,345576,PARKVIEW HEALTH & REHAB CENTER,108,63,1716 LEGION ROAD,CHAPEL HILL,27517,35.9392964,-79.0160663
47901,345577,SWIFT CREEK HEALTH CENTER,28,15.9,221 BRIGHTMORE DRIVE,CARY,27511,35.77026,-78.75641
47906,345578,BRIAR CREEK HEALTH CENTER,22,,6041 PIEDMONT ROW DRIVE,CHARLOTTE,28210,35.1514322,-80.8399572
47911,34A001,BLACK MOUNTAIN NEURO-MEDICAL TREATMENT CENTER,165,133.6,932 OLD US HIGHWAY 70,BLACK MOUNTAIN,28711,35.61002071,-82.34256646
47916,34A002,O'BERRY NEURO-MEDICAL TREATMENT CENTER,144,120,400 OLD SMITHFIELD ROAD,GOLDSBORO,27533,35.40021205,-78.03693475